OBJECT_NAME,OBJECT_ID,EPOCH,MEAN_MOTION,ECCENTRICITY,INCLINATION,RA_OF_ASC_NODE,ARG_OF_PERICENTER,MEAN_ANOMALY,EPHEMERIS_TYPE,CLASSIFICATION_TYPE,NORAD_CAT_ID,ELEMENT_SET_NO,REV_AT_EPOCH,BSTAR,MEAN_MOTION_DOT,MEAN_MOTION_DDOT
SIRION PATHFINDER-2,2018-099B,2026-06-12T02:15:59.093280,15.14503139,.00075735,97.4258,212.2727,325.8015,34.2728,0,U,43759,999,41185,.23993243E-3,.4355E-4,0
CORVUS BC4,2018-099K,2026-06-12T02:15:30.240864,15.12454193,.00088443,97.4071,206.2233,30.0486,330.1251,0,U,43767,999,41163,.20153531E-3,.3443E-4,0
M2 PATHFINDER,2020-037E,2026-06-12T06:12:37.120608,15.04657894,.0012066,97.8155,354.4355,161.7427,198.4235,0,U,45727,999,32475,.17181251E-3,.2355E-4,0
NETSAT-4,2020-068U,2026-06-12T00:06:03.672288,15.43693540,.00044978,97.8603,170.8288,1.0103,359.1152,0,U,46504,999,31497,.36610083E-3,.16437E-3,0
NETSAT-3,2020-068V,2026-06-12T06:23:00.305664,15.42511716,.00049268,97.8651,169.3342,19.4008,340.7424,0,U,46505,999,31492,.45347216E-3,.19599E-3,0
NETSAT-1,2020-068W,2026-06-12T05:52:48.035424,15.34529137,.00056209,97.8742,163.7008,46.6964,313.4746,0,U,46506,999,31454,.39944755E-3,.13288E-3,0
NETSAT-2,2020-068X,2026-06-11T23:40:42.777408,15.45775798,.00041414,97.8617,170.6854,41.3390,318.8171,0,U,46507,999,31493,.45561608E-3,.21996E-3,0
GREENCUBE (IO-117),2022-080E,2026-06-01T11:09:37.753056,6.42583280,.00088692,70.1435,303.7143,293.3663,66.6064,0,U,53109,999,9105,0,-.3E-7,0
SITRO-AIS 5 (KATYS),2023-091L,2026-06-12T05:28:52.537440,15.29345180,.00127776,97.5069,227.0805,118.6872,241.5655,0,U,57176,999,16358,.46203697E-3,.13113E-3,0
SITRO-AIS 6 (CHIRKIN),2023-091AC,2026-06-12T06:16:33.898080,15.25842340,.00130748,97.5076,226.2592,121.6650,238.5865,0,U,57192,999,16353,.42466342E-3,.10825E-3,0
SITRO-AIS 8 (ANOKHIN),2023-091AD,2026-06-12T06:05:49.758432,15.32004225,.00118774,97.5066,228.6754,115.1531,245.0944,0,U,57193,999,16369,.52981824E-3,.16344E-3,0
SITRO-AIS 7 (FARTUSHNIY),2023-091AE,2026-06-12T06:19:39.237312,15.25532193,.00129164,97.5074,226.0888,122.5657,237.6830,0,U,57194,999,16352,.42508185E-3,.10734E-3,0
SITRO-AIS 10 (BURDAEV),2023-091AK,2026-06-12T05:47:22.150176,15.38425449,.00077747,97.5089,233.6655,94.8845,265.3287,0,U,57199,999,16400,.57944711E-3,.21933E-3,0
SITRO-AIS 9 (SHCHUKIN),2023-091AM,2026-06-12T06:23:07.785312,15.37944845,.0008032,97.5087,233.4246,94.8642,265.3519,0,U,57201,999,16399,.56885012E-3,.21196E-3,0
SITRO-AIS 12 (SMIRENNIY),2023-091AQ,2026-06-12T06:10:57.907488,15.38232970,.00076048,97.5101,233.8800,90.0626,270.1490,0,U,57204,999,16401,.55412729E-3,.20836E-3,0
SITRO-AIS 11 (SHEFFER),2023-091AU,2026-06-12T06:32:14.240256,15.38656121,.00075111,97.5099,234.1387,89.8215,270.3891,0,U,57208,999,16403,.56330019E-3,.21478E-3,0
SITRO-AIS 25,2024-039R,2026-06-12T06:49:18.024096,14.93490595,.01440732,95.3915,231.7230,346.0664,13.6603,0,U,59066,999,12399,.22509766E-3,.287E-4,0
SITRO-AIS 26,2024-039S,2026-06-12T06:50:18.874752,14.93286915,.01444208,95.3916,231.6223,346.6371,13.1045,0,U,59067,999,12398,.21209972E-3,.2689E-4,0
SITRO-AIS 27,2024-039T,2026-06-12T06:09:26.963712,14.93703724,.01434253,95.3915,231.8721,345.3081,14.3995,0,U,59068,999,12400,.24560996E-3,.3147E-4,0
SITRO-AIS 28,2024-039U,2026-06-12T05:37:07.235328,14.93738099,.01433687,95.3918,231.9037,345.2477,14.4584,0,U,59071,999,12400,.20290182E-3,.2596E-4,0
GRBBETA,2024-128C,2026-06-12T07:24:35.721792,15.06609302,.00412877,61.9896,233.3818,133.6112,226.8419,0,U,60237,999,10553,.24456776E-3,.3491E-4,0
OOV-CUBE (TUBSAT-30),2024-128F,2026-06-11T14:22:54.209856,15.02751187,.0045327,61.9950,245.0577,132.4986,227.9949,0,U,60240,999,10527,.1598E-3,.1977E-4,0
ROBUSTA-3A (MEDITERRANEE),2024-128J,2026-06-12T07:20:41.833536,15.11623087,.00418641,61.9860,225.5052,127.2589,233.2336,0,U,60243,999,10568,.41453547E-3,.7007E-4,0
LASARSAT,2024-247Q,2026-06-12T01:35:26.614464,15.46059259,.00084039,44.9753,290.9829,302.5447,57.4631,0,U,62391,999,8252,.64660115E-3,.32134E-3,0
CROCUBE,2024-247T,2026-06-12T06:20:01.926816,15.47921042,.00082607,44.9724,287.2870,307.3288,52.6849,0,U,62394,999,8258,.76592407E-3,.40736E-3,0
FORESAIL-1 PRIME,2025-276DS,2026-06-12T04:28:50.095488,15.18657242,.00038644,97.4203,236.5489,113.4472,246.7169,0,U,66778,999,2964,.22324714E-3,.4559E-4,0
KNACKSAT-2,1998-067XZ,2026-06-11T17:05:46.405824,15.59478995,.00098455,51.6308,322.0071,191.1847,168.8928,0,U,67683,999,1942,.58268258E-3,.46941E-3,0
